{"type": "FeatureCollection", "features": [ {"type": "Feature", "properties": {"norad_id": 30242, "name": "FENGYUN 1C DEB", "group": "fengyun-1c-debris", "lat": -3.1616786343391734, "lon": 36.24512601472827, "alt_km": 829.2865439507486, "timestamp": "2025-12-27T22:26:48.878151+00:00", "meta": {"OBJECT_NAME": "FENGYUN 1C DEB", "OBJECT_ID": "1999-025XB", "EPOCH": "2025-12-27T02:26:16.334016", "MEAN_MOTION": 14.17672057, "ECCENTRICITY": 0.00104031, "INCLINATION": 98.6823, "RA_OF_ASC_NODE": 34.9468, "ARG_OF_PERICENTER": 14.0188, "MEAN_ANOMALY": 50.3836, "EPHEMERIS_TYPE": 0, "CLASSIFICATION_TYPE": "U", "NORAD_CAT_ID": 30242, "ELEMENT_SET_NO": 999, "REV_AT_EPOCH": 97630, "BSTAR": 0.00062226521, "MEAN_MOTION_DOT": 1.224e-05, "MEAN_MOTION_DDOT": 0}, "tle": {"line1": "1 30242U 99025XB  25361.10157794  .00001224  00000+0  62227-3 0  9997", "line2": "2 30242  98.6823  34.9468 0010403  14.0188  50.3836 14.17672057976303"}}, "geometry": {"type": "Point", "coordinates": [36.24512601472827, -3.1616786343391734]}}, {"type": "Feature", "properties": {"norad_id": 30243, "name": "FENGYUN 1C DEB", "group": "fengyun-1c-debris", "lat": -8.296466354212939, "lon": -168.36503827752173, "alt_km": 856.0305830085672, "timestamp": "2025-12-27T22:26:48.878161+00:00", "meta": {"OBJECT_NAME": "FENGYUN 1C DEB", "OBJECT_ID": "1999-025XC", "EPOCH": "2025-12-27T12:07:57.894816", "MEAN_MOTION": 14.13043324, "ECCENTRICITY": 0.0013171, "INCLINATION": 98.6927, "RA_OF_ASC_NODE": 12.496, "ARG_OF_PERICENTER": 80.2038, "MEAN_ANOMALY": 82.9999, "EPHEMERIS_TYPE": 0, "CLASSIFICATION_TYPE": "U", "NORAD_CAT_ID": 30243, "ELEMENT_SET_NO": 999, "REV_AT_EPOCH": 97487, "BSTAR": 0.00042273, "MEAN_MOTION_DOT": 7.47e-06, "MEAN_MOTION_DDOT": 0}, "tle": {"line1": "1 30243U 99025XC  25361.50553119  .00000747  00000+0  42273-3 0  9991", "line2": "2 30243  98.6927  12.4960 0013171  80.2038  82.9999 14.13043324974877"}}, "geometry": {"type": "Point", "coordinates": [-168.36503827752173, -8.296466354212939]}}, {"type": "Feature", "properties": {"norad_id": 30244, "name": "FENGYUN 1C DEB", "group": "fengyun-1c-debris", "lat": 46.56180774969784, "lon": 81.7516756963955, "alt_km": 842.8411983506658, "timestamp": "2025-12-27T22:26:48.878170+00:00", "meta": {"OBJECT_NAME": "FENGYUN 1C DEB", "OBJECT_ID": "1999-025XD", "EPOCH": "2025-12-27T05:26:10.394880", "MEAN_MOTION": 14.15037642, "ECCENTRICITY": 0.0009005, "INCLINATION": 99.1431, "RA_OF_ASC_NODE": 251.2335, "ARG_OF_PERICENTER": 272.2452, "MEAN_ANOMALY": 211.7858, "EPHEMERIS_TYPE": 0, "CLASSIFICATION_TYPE": "U", "NORAD_CAT_ID": 30244, "ELEMENT_SET_NO": 999, "REV_AT_EPOCH": 97551, "BSTAR": 0.00041953, "MEAN_MOTION_DOT": 7.66e-06, "MEAN_MOTION_DDOT": 0}, "tle": {"line1": "1 30244U 99025XD  25361.22650920  .00000766  00000+0  41953-3 0  9994", "line2": "2 30244  99.1431 251.2335 0009005 272.2452 211.7858 14.15037642975513"}}, "geometry": {"type": "Point", "coordinates": [81.7516756963955, 46.56180774969784]}}, {"type": "Feature", "properties": {"norad_id": 30245, "name": "FENGYUN 1C DEB", "group": "fengyun-1c-debris", "lat": 70.93802573156381, "lon": -164.45882678358905, "alt_km": 990.1363292186779, "timestamp": "2025-12-27T22:26:48.878180+00:00", "meta": {"OBJECT_NAME": "FENGYUN 1C DEB", "OBJECT_ID": "1999-025XE", "EPOCH": "2025-12-27T06:14:36.489120", "MEAN_MOTION": 13.79101384, "ECCENTRICITY": 0.0192849, "INCLINATION": 98.8904, "RA_OF_ASC_NODE": 347.9726, "ARG_OF_PERICENTER": 211.99, "MEAN_ANOMALY": 146.9428, "EPHEMERIS_TYPE": 0, "CLASSIFICATION_TYPE": "U", "NORAD_CAT_ID": 30245, "ELEMENT_SET_NO": 999, "REV_AT_EPOCH": 94894, "BSTAR": 0.00099418, "MEAN_MOTION_DOT": 1.127e-05, "MEAN_MOTION_DDOT": 0}, "tle": {"line1": "1 30245U 99025XE  25361.26014455  .00001127  00000+0  99418-3 0  9997", "line2": "2 30245  98.8904 347.9726 0192849 211.9900 146.9428 13.79101384948942"}}, "geometry": {"type": "Point", "coordinates": [-164.45882678358905, 70.93802573156381]}}, {"type": "Feature", "properties": {"norad_id": 30246, "name": "FENGYUN 1C DEB", "group": "fengyun-1c-debris", "lat": 67.2281074170174, "lon": 122.07061105819236, "alt_km": 838.0748592150694, "timestamp": "2025-12-27T22:26:48.878190+00:00", "meta": {"OBJECT_NAME": "FENGYUN 1C DEB", "OBJECT_ID": "1999-025XF", "EPOCH": "2025-12-27T08:02:30.785856", "MEAN_MOTION": 13.37025026, "ECCENTRICITY": 0.0370417, "INCLINATION": 98.6739, "RA_OF_ASC_NODE": 142.8812, "ARG_OF_PERICENTER": 63.0963, "MEAN_ANOMALY": 357.8066, "EPHEMERIS_TYPE": 0, "CLASSIFICATION_TYPE": "U", "NORAD_CAT_ID": 30246, "ELEMENT_SET_NO": 999, "REV_AT_EPOCH": 92335, "BSTAR": 0.00031558, "MEAN_MOTION_DOT": 2.11e-06, "MEAN_MOTION_DDOT": 0}, "tle": {"line1": "1 30246U 99025XF  25361.33507854  .00000211  00000+0  31558-3 0  9990", "line2": "2 30246  98.6739 142.8812 0370417  63.0963 357.8066 13.37025026923350"}}, "geometry": {"type": "Point", "coordinates": [122.07061105819236, 67.2281074170174]}}, {"type": "Feature", "properties": {"norad_id": 30247, "name": "FENGYUN 1C DEB", "group": "fengyun-1c-debris", "lat": -15.569427706676752, "lon": -88.61313409080547, "alt_km": 593.3959918889341, "timestamp": "2025-12-27T22:26:48.878199+00:00", "meta": {"OBJECT_NAME": "FENGYUN 1C DEB", "OBJECT_ID": "1999-025XG", "EPOCH": "2025-12-27T11:15:15.893280", "MEAN_MOTION": 14.59772285, "ECCENTRICITY": 0.0191028, "INCLINATION": 98.2763, "RA_OF_ASC_NODE": 268.5969, "ARG_OF_PERICENTER": 306.2922, "MEAN_ANOMALY": 107.3709, "EPHEMERIS_TYPE": 0, "CLASSIFICATION_TYPE": "U", "NORAD_CAT_ID": 30247, "ELEMENT_SET_NO": 999, "REV_AT_EPOCH": 97497, "BSTAR": 0.0037765, "MEAN_MOTION_DOT": 0.00023312, "MEAN_MOTION_DDOT": 0}, "tle": {"line1": "1 30247U 99025XG  25361.46893395  .00023312  00000+0  37765-2 0  9995", "line2": "2 30247  98.2763 268.5969 0191028 306.2922 107.3709 14.59772285974976"}}, "geometry": {"type": "Point", "coordinates": [-88.61313409080547, -15.569427706676752]}}, {"type": "Feature", "properties": {"norad_id": 30248, "name": "FENGYUN 1C DEB", "group": "fengyun-1c-debris", "lat": 16.29869700551886, "lon": -175.1685233539178, "alt_km": 693.3795578598447, "timestamp": "2025-12-27T22:26:48.878209+00:00", "meta": {"OBJECT_NAME": "FENGYUN 1C DEB", "OBJECT_ID": "1999-025XH", "EPOCH": "2025-12-27T10:51:20.204352", "MEAN_MOTION": 14.5969428, "ECCENTRICITY": 0.0028018, "INCLINATION": 99.1009, "RA_OF_ASC_NODE": 186.9885, "ARG_OF_PERICENTER": 104.3981, "MEAN_ANOMALY": 256.0328, "EPHEMERIS_TYPE": 0, "CLASSIFICATION_TYPE": "U", "NORAD_CAT_ID": 30248, "ELEMENT_SET_NO": 999, "REV_AT_EPOCH": 97643, "BSTAR": 0.0041988, "MEAN_MOTION_DOT": 0.00020126, "MEAN_MOTION_DDOT": 0}, "tle": {"line1": "1 30248U 99025XH  25361.45231718  .00020126  00000+0  41988-2 0  9992", "line2": "2 30248  99.1009 186.9885 0028018 104.3981 256.0328 14.59694280976430"}}, "geometry": {"type": "Point", "coordinates": [-175.1685233539178, 16.29869700551886]}}, {"type": "Feature", "properties": {"norad_id": 30249, "name": "FENGYUN 1C DEB", "group": "fengyun-1c-debris", "lat": -0.5317713307997217, "lon": 167.5976473595017, "alt_km": 683.214854431264, "timestamp": "2025-12-27T22:26:48.878219+00:00", "meta": {"OBJECT_NAME": "FENGYUN 1C DEB", "OBJECT_ID": "1999-025XJ", "EPOCH": "2025-12-27T11:12:32.190336", "MEAN_MOTION": 14.58099414, "ECCENTRICITY": 0.0027082, "INCLINATION": 98.9592, "RA_OF_ASC_NODE": 167.0097, "ARG_OF_PERICENTER": 355.3767, "MEAN_ANOMALY": 67.6737, "EPHEMERIS_TYPE": 0, "CLASSIFICATION_TYPE": "U", "NORAD_CAT_ID": 30249, "ELEMENT_SET_NO": 999, "REV_AT_EPOCH": 97778, "BSTAR": 0.0037028, "MEAN_MOTION_DOT": 0.00017121, "MEAN_MOTION_DDOT": 0}, "tle": {"line1": "1 30249U 99025XJ  25361.46703924  .00017121  00000+0  37028-2 0  9998", "line2": "2 30249  98.9592 167.0097 0027082 355.3767  67.6737 14.58099414977786"}}, "geometry": {"type": "Point", "coordinates": [167.5976473595017, -0.5317713307997217]}}, {"type": "Feature", "properties": {"norad_id": 30250, "name": "FENGYUN 1C DEB", "group": "fengyun-1c-debris", "lat": -64.40425374646996, "lon": 154.5038441757162, "alt_km": 874.3641656598265, "timestamp": "2025-12-27T22:26:48.878229+00:00", "meta": {"OBJECT_NAME": "FENGYUN 1C DEB", "OBJECT_ID": "1999-025XK", "EPOCH": "2025-12-27T11:35:58.658784", "MEAN_MOTION": 14.01638834, "ECCENTRICITY": 0.0068492, "INCLINATION": 98.7545, "RA_OF_ASC_NODE": 352.8344, "ARG_OF_PERICENTER": 181.5798, "MEAN_ANOMALY": 304.1749, "EPHEMERIS_TYPE": 0, "CLASSIFICATION_TYPE": "U", "NORAD_CAT_ID": 30250, "ELEMENT_SET_NO": 999, "REV_AT_EPOCH": 96698, "BSTAR": 0.0002264, "MEAN_MOTION_DOT": 3.08e-06, "MEAN_MOTION_DDOT": 0}, "tle": {"line1": "1 30250U 99025XK  25361.48331781  .00000308  00000+0  22640-3 0  9994", "line2": "2 30250  98.7545 352.8344 0068492 181.5798 304.1749 14.01638834966981"}}, "geometry": {"type": "Point", "coordinates": [154.5038441757162, -64.40425374646996]}}, {"type": "Feature", "properties": {"norad_id": 30251, "name": "FENGYUN 1C DEB", "group": "fengyun-1c-debris", "lat": 23.520513202554362, "lon": -163.14004411438486, "alt_km": 798.277686350666, "timestamp": "2025-12-27T22:26:48.878239+00:00", "meta": {"OBJECT_NAME": "FENGYUN 1C DEB", "OBJECT_ID": "1999-025XL", "EPOCH": "2025-12-27T12:21:08.797824", "MEAN_MOTION": 14.29340913, "ECCENTRICITY": 0.0051339, "INCLINATION": 99.0487, "RA_OF_ASC_NODE": 200.4006, "ARG_OF_PERICENTER": 287.2117, "MEAN_ANOMALY": 93.0961, "EPHEMERIS_TYPE": 0, "CLASSIFICATION_TYPE": "U", "NORAD_CAT_ID": 30251, "ELEMENT_SET_NO": 999, "REV_AT_EPOCH": 98353, "BSTAR": 0.00055199, "MEAN_MOTION_DOT": 1.378e-05, "MEAN_MOTION_DDOT": 0}, "tle": {"line1": "1 30251U 99025XL  25361.51468516  .00001378  00000+0  55199-3 0  9999", "line2": "2 30251  99.0487 200.4006 0051339 287.2117  93.0961 14.29340913983533"}}, "geometry": {"type": "Point", "coordinates": [-163.14004411438486, 23.520513202554362]}}]}